MONITOR-2 (RS39S)       
1 57184U 23091U   25101.19322937  .00009868  00000+0  55179-3 0  9995
2 57184  97.5675 157.2345 0013348 163.5439 196.6228 15.13607702 98499
SVYATOBOR 1 (RS60S)     
1 57187U 23091X   25101.20801168  .00015391  00000+0  76348-3 0  9997
2 57187  97.5678 158.9101 0012537 156.6535 203.5270 15.17741371 98605
VIZARD-METEO (RS38S)    
1 57189U 23091Z   25101.19375875  .00023176  00000+0  10204-2 0  9996
2 57189  97.5662 160.3941 0011213 151.7160 208.4687 15.21790088 98700
NANOZOND 1 (RS49S)      
1 57190U 23091AA  25101.16038825  .00046982  00000+0  15173-2 0  9996
2 57190  97.5618 163.2711 0008890 150.3610 209.8137 15.31926469 98904
POLYTECH-UNIVERSE 3 (R*)
1 57191U 23091AB  25101.19600380  .00009910  00000+0  55231-3 0  9991
2 57191  97.5646 156.8005 0017678 181.0815 179.0381 15.13667557 98484
UTMN 2 (RS27S)          
1 57203U 23091AP  25101.16996466  .00020704  00000+0  95420-3 0  9993
2 57203  97.5664 159.8073 0011678 152.9685 207.2160 15.20240707 98663
ARCCUBE 1 (RS25S)       
1 57205U 23091AR  25101.16644443  .00071355  00000+0  18282-2 0  9998
2 57205  97.5543 164.6784 0008185 151.0889 209.0811 15.39086441 99015
KUZGTU 1 (RS47S)        
1 57217U 23091AV  25101.21540544  .00018777  00000+0  90475-3 0  9998
2 57217  97.5655 158.4181 0015010 165.9644 194.2010 15.18682374 98583
SONATE-2                
1 59112U 24043Q   25100.96410015  .00028872  00000+0  89770-3 0  9995
2 59112  97.5043 231.0804 0010549 327.4862  32.5729 15.33235866 61194
MESAT1                  
1 60209U 24125G   25100.07656657  .00030140  00000+0  92601-3 0  9999
2 60209  97.2881 312.4484 0019429 358.5983   1.5202 15.33471190 42679
OOV-CUBE (TUBSAT-30)    
1 60240U 24128F   25100.93637815  .00005589  00000+0  45577-3 0  9996
2 60240  61.9958 289.4630 0045573  41.1113 319.3395 14.99815047 41218
COLIBRI-S (RS67S)       
1 61746U 24199M   25101.15749765  .00023917  00000+0  80493-3 0  9990
2 61746  97.3667 330.2158 0013737  42.6315 317.5989 15.30689309 70999
HORS 3 (RS81S)          
1 61753U 24199U   25101.19346805  .00029072  00000+0  95060-3 0  9994
2 61753  97.3635 330.2628 0012261  49.6781 310.5530 15.31599760 71009
HORS 4 (RS82S)          
1 61754U 24199V   25101.15816704  .00030668  00000+0  98328-3 0  9994
2 61754  97.3632 330.3047 0012364  50.5047 309.7286 15.32218797 71000
HORIZON (RS59S)         
1 61757U 24199Y   25101.18798764  .00042192  00000+0  12588-2 0  9993
2 61757  97.3658 330.6216 0012523  40.3690 319.8480 15.34439771 71029
SIT-2086                
1 61764U 24199AF  25101.21845007  .00031475  00000+0  98003-3 0  9997
2 61764  97.3639 330.5339 0010789  51.5262 308.6946 15.33168238 67868
MORDOVIA-IOT (RS50S)    
1 61765U 24199AG  25101.17630630  .00055266  00000+0  15075-2 0  9998
2 61765  97.3646 330.9337 0011720  37.4477 322.7582 15.37191491 67893
RUZAEVKA 390 (RS44S)    
1 61766U 24199AH  25101.21124971  .00048197  00000+0  13541-2 0  9991
2 61766  97.3644 330.8833 0011779  37.5099 322.6965 15.36305269 67890
HYPERVIEW 1G (RS66S)    
1 61772U 24199AP  25101.19216542  .00035919  00000+0  11380-2 0  9998
2 61772  97.3633 330.2591 0015646  51.4330 308.8311 15.32521439 67852
ALTAIR (RS65S)          
1 61779U 24199AW  25101.22351566  .00015300  00000+0  56534-3 0  9998
2 61779  97.3650 329.7871 0017303  52.5207 307.7602 15.27677187 70973
ASRTU-1 (AO-123)        
1 61781U 24199AY  25101.17976413  .00013893  00000+0  51921-3 0  9999
2 61781  97.3643 329.6861 0017524  52.7403 307.5431 15.27321458 67815
TUSUR GO (RS78S)        
1 61782U 24199AZ  25101.20454549  .00042095  00000+0  13079-2 0  9992
2 61782  97.3630 330.2435 0016265  50.8415 309.4270 15.33098319 67850
SAMSAT-IONOSPHERE (RS7*)
1 61784U 24199BB  25101.21421428  .00029665  00000+0  98633-3 0  9993
2 61784  97.3639 330.0875 0016856  51.7381 308.5374 15.30990992 70994
RTU MIREA 1 (RS51S)     
1 61785U 24199BC  25101.20112707  .00032580  00000+0  10724-2 0  9994
2 61785  97.3637 330.1039 0016630  51.1928 309.0795 15.31300148 67849
HADES-R                 
1 62690U 25009CK  25100.77659128  .00051436  00000+0  21092-2 0  9996
2 62690  97.4125 182.0162 0002465 261.3717  98.7241 15.24071126 13023
